{
  "norad_id": 59674,
  "name": "STARLINK-31875",
  "history": [
    {
      "epoch": "2026-03-28T20:13:21.077184",
      "apogee_km": 483.96028969967665,
      "perigee_km": 482.09556229608916,
      "latitude_deg": 38.97666197327861,
      "longitude_deg": -131.7099142400548,
      "semi_major_axis_km": 6861.164925997883,
      "eccentricity": 0.00013589,
      "inclination_deg": 43.0026,
      "raan_deg": 290.0566,
      "arg_perigee_deg": 274.3339,
      "mean_anomaly_deg": 85.7357,
      "mean_motion_rev_day": 15.2758707
    }
  ]
}