{"fetched_at":"2026-03-29T16:36:15Z","count":15609,"tles":[{"name":"STARLINK-31875","line1":"1 59674U 24084W   26087.84260506  .00001587  00000+0  67158-4 0  9994","line2":"2 59674  43.0026 290.0566 0001358 274.3339  85.7357 15.27587070107346","category":"Starlink"}]}